IRIDIUM 150             
1 43257U 18030J   24097.71716977  .00000053  00000+0  11697-4 0  9995
2 43257  86.3920 265.3888 0002271  85.1950 274.9505 14.34217866315307
IRIDIUM 143             
1 43258U 18030K   24097.41906656 -.00000026  00000+0 -16235-4 0  9993
2 43258  86.3924 265.5747 0001956  80.0452 280.0965 14.34217645315176
IRIDIUM 161             
1 43478U 18047C   24097.70448862  .00000467  00000+0  13294-3 0  9995
2 43478  86.4473  63.4188 0002280  88.9840 271.1622 14.43276218309538
IRIDIUM 152             
1 43479U 18047D   24097.60108839  .00000341  00000+0  11454-3 0  9999
2 43479  86.3945  63.3215 0002270  84.0143 276.1312 14.34216579307593
IRIDIUM 147             
1 43480U 18047E   24097.60742686  .00000329  00000+0  11038-3 0  9999
2 43480  86.3946  63.3099 0002366  91.6172 268.5295 14.34216462307594
IRIDIUM 110             
1 43481U 18047F   24097.61377455  .00000162  00000+0  50717-4 0  9992
2 43481  86.3951  63.3783 0002597  93.4127 266.7365 14.34216866307582
IRIDIUM 162             
1 43482U 18047G   24097.62886853  .00000442  00000+0  12538-3 0  9990
2 43482  86.4471  63.3513 0002385  93.4151 266.7323 14.43274115309514
IRIDIUM 160             
1 43569U 18061A   24097.55961732  .00000328  00000+0  10999-3 0  9996
2 43569  86.4013  31.7707 0001929  94.1387 266.0030 14.34218574298475
